COMMENT,ORIGINATOR,NORAD_CAT_ID,OBJECT_NAME,OBJECT_TYPE,CLASSIFICATION_TYPE,INTLDES,EPOCH,EPOCH_MICROSECONDS,MEAN_MOTION,ECCENTRICITY,INCLINATION,RA_OF_ASC_NODE,ARG_OF_PERICENTER,MEAN_ANOMALY,EPHEMERIS_TYPE,ELEMENT_SET_NO,REV_AT_EPOCH,BSTAR,MEAN_MOTION_DOT,MEAN_MOTION_DDOT,FILE,TLE_LINE0,TLE_LINE1,TLE_LINE2,OBJECT_ID,OBJECT_NUMBER,SEMIMAJOR_AXIS,PERIOD,APOGEE,PERIGEE,DECAYED
"GENERATED VIA SPACETRACK.ORG API","18 SPCS","55095","SPACEBEE-162","PAYLOAD","U","23001CQ","2023-08-26 17:17:56","208480","15.2236852","0.001571","97.471","298.2741","116.0228","244.2628","0","999","3582","0.0008501","0.00019651","0","3989878","0 SPACEBEE-162","1 55095U 23001CQ  23238.72078945  .00019651  00000-0  85010-3 0  9999","2 55095  97.4710 298.2741 0015710 116.0228 244.2628 15.22368520 35821","2023-001CQ","55095","6876.836","94.589","509.504","487.897","0"
"GENERATED VIA SPACETRACK.ORG API","18 SPCS","55095","SPACEBEE-162","PAYLOAD","U","23001CQ","2023-08-27 02:45:50","50368","15.22383629","0.0015702","97.4712","298.666","114.8917","245.3954","0","999","3588","0.00084538","0.0001955","0","3990390","0 SPACEBEE-162","1 55095U 23001CQ  23239.11516262  .00019550  00000-0  84538-3 0  9994","2 55095  97.4712 298.6660 0015702 114.8917 245.3954 15.22383629 35886","2023-001CQ","55095","6876.790","94.589","509.453","487.857","0"
"GENERATED VIA SPACETRACK.ORG API","18 SPCS","55095","SPACEBEE-162","PAYLOAD","U","23001CQ","2023-08-27 16:57:40","144032","15.22408257","0.0015723","97.471","299.2536","112.9855","247.3042","0","999","3597","0.00087901","0.00020348","0","3990698","0 SPACEBEE-162","1 55095U 23001CQ  23239.70671463  .00020348  00000-0  87901-3 0  9998","2 55095  97.4710 299.2536 0015723 112.9855 247.3042 15.22408257 35971","2023-001CQ","55095","6876.716","94.587","509.393","487.769","0"
"GENERATED VIA SPACETRACK.ORG API","18 SPCS","55095","SPACEBEE-162","PAYLOAD","U","23001CQ","2023-08-27 21:41:36","677472","15.22414311","0.0015728","97.4711","299.4495","112.3712","247.9192","0","999","3600","0.00082481","0.00019089","0","3991003","0 SPACEBEE-162","1 55095U 23001CQ  23239.90389673  .00019089  00000-0  82481-3 0  9997","2 55095  97.4711 299.4495 0015728 112.3712 247.9192 15.22414311 36004","2023-001CQ","55095","6876.698","94.587","509.378","487.747","0"
"GENERATED VIA SPACETRACK.ORG API","18 SPCS","55095","SPACEBEE-162","PAYLOAD","U","23001CQ","2023-08-28 21:21:18","23616","15.22452563","0.0015749","97.471","300.4295","109.0674","251.2269","0","999","3615","0.00080682","0.00018691","0","3991628","0 SPACEBEE-162","1 55095U 23001CQ  23240.88979194  .00018691  00000-0  80682-3 0  9998","2 55095  97.4710 300.4295 0015749 109.0674 251.2269 15.22452563 36157","2023-001CQ","55095","6876.583","94.584","509.277","487.618","0"
"GENERATED VIA SPACETRACK.ORG API","18 SPCS","55095","SPACEBEE-162","PAYLOAD","U","23001CQ","2023-08-29 02:05:14","60256","15.22459199","0.0015766","97.471","300.6256","108.4684","251.8268","0","999","3618","0.00077529","0.0001796","0","3991930","0 SPACEBEE-162","1 55095U 23001CQ  23241.08696829  .00017960  00000-0  77529-3 0  9996","2 55095  97.4710 300.6256 0015766 108.4684 251.8268 15.22459199 36189","2023-001CQ","55095","6876.563","94.584","509.269","487.586","0"
"GENERATED VIA SPACETRACK.ORG API","18 SPCS","55095","SPACEBEE-162","PAYLOAD","U","23001CQ","2023-08-29 17:51:40","200192","15.22482936","0.0015709","97.4708","301.2787","106.2204","254.0762","0","999","3628","0.00074816","0.00017339","0","3992439","0 SPACEBEE-162","1 55095U 23001CQ  23241.74421528  .00017339  00000-0  74816-3 0  9997","2 55095  97.4708 301.2787 0015709 106.2204 254.0762 15.22482936 36283","2023-001CQ","55095","6876.491","94.582","509.158","487.554","0"
"GENERATED VIA SPACETRACK.ORG API","18 SPCS","55095","SPACEBEE-162","PAYLOAD","U","23001CQ","2023-08-30 03:19:31","467360","15.2249722","0.0015691","97.4707","301.6707","104.951","255.3464","0","999","3634","0.00074214","0.00017206","0","3993012","0 SPACEBEE-162","1 55095U 23001CQ  23242.13855865  .00017206  00000-0  74214-3 0  9991","2 55095  97.4707 301.6707 0015691 104.9510 255.3464 15.22497220 36345","2023-001CQ","55095","6876.448","94.581","509.103","487.523","0"
"GENERATED VIA SPACETRACK.ORG API","18 SPCS","55095","SPACEBEE-162","PAYLOAD","U","23001CQ","2023-08-30 20:40:34","691232","15.22522843","0.0015621","97.4704","302.3896","102.8932","257.4051","0","999","3645","0.00079623","0.00018482","0","3993321","0 SPACEBEE-162","1 55095U 23001CQ  23242.86151263  .00018482  00000-0  79623-3 0  9998","2 55095  97.4704 302.3896 0015621 102.8932 257.4051 15.22522843 36454","2023-001CQ","55095","6876.371","94.580","508.978","487.494","0"
"GENERATED VIA SPACETRACK.ORG API","18 SPCS","55095","SPACEBEE-162","PAYLOAD","U","23001CQ","2023-08-31 09:17:41","827488","15.2254057","0.0015615","97.4702","302.9123","101.2186","259.0807","0","999","3653","0.00076648","0.00017796","0","3993869","0 SPACEBEE-162","1 55095U 23001CQ  23243.38728967  .00017796  00000-0  76648-3 0  9998","2 55095  97.4702 302.9123 0015615 101.2186 259.0807 15.22540570 36531","2023-001CQ","55095","6876.318","94.579","508.920","487.445","0"
"GENERATED VIA SPACETRACK.ORG API","18 SPCS","55095","SPACEBEE-162","PAYLOAD","U","23001CQ","2023-08-31 09:17:41","827488","15.2254057","0.0015615","97.4702","302.9123","101.2186","259.0807","0","999","3653","0.00076648","0.00017796","0","3994074","0 SPACEBEE-162","1 55095U 23001CQ  23243.38728967  .00017796  00000-0  76648-3 0  9998","2 55095  97.4702 302.9123 0015615 101.2186 259.0807 15.22540570 36531","2023-001CQ","55095","6876.318","94.579","508.920","487.445","0"
"GENERATED VIA SPACETRACK.ORG API","18 SPCS","55095","SPACEBEE-162","PAYLOAD","U","23001CQ","2023-09-01 02:38:43","221408","15.22566976","0.0015621","97.47","303.6311","98.9247","261.3759","0","999","3664","0.00077021","0.00017897","0","3994767","0 SPACEBEE-162","1 55095U 23001CQ  23244.11022247  .00017897  00000-0  77021-3 0  9996","2 55095  97.4700 303.6311 0015621  98.9247 261.3759 15.22566976 36645","2023-001CQ","55095","6876.238","94.577","508.844","487.362","0"
"GENERATED VIA SPACETRACK.ORG API","18 SPCS","55095","SPACEBEE-162","PAYLOAD","U","23001CQ","2023-09-02 02:18:15","959520","15.22607248","0.001562","97.4694","304.6108","95.7708","264.5309","0","999","3679","0.00085091","0.00019809","0","3995264","0 SPACEBEE-162","1 55095U 23001CQ  23245.09601805  .00019809  00000-0  85091-3 0  9998","2 55095  97.4694 304.6108 0015620  95.7708 264.5309 15.22607248 36798","2023-001CQ","55095","6876.117","94.575","508.722","487.241","0"
"GENERATED VIA SPACETRACK.ORG API","18 SPCS","55095","SPACEBEE-162","PAYLOAD","U","23001CQ","2023-09-02 10:11:26","379168","15.22619727","0.0015617","97.4692","304.9376","94.8422","265.4598","0","999","3684","0.000848","0.00019748","0","3995624","0 SPACEBEE-162","1 55095U 23001CQ  23245.42461087  .00019748  00000-0  84800-3 0  9990","2 55095  97.4692 304.9376 0015617  94.8422 265.4598 15.22619727 36846","2023-001CQ","55095","6876.079","94.574","508.683","487.206","0"
"GENERATED VIA SPACETRACK.ORG API","18 SPCS","55095","SPACEBEE-162","PAYLOAD","U","23001CQ","2023-09-02 21:13:52","345632","15.22658456","0.0015607","97.4692","305.3951","93.4253","266.8769","0","999","3691","0.0014724","0.00034447","0","3995906","0 SPACEBEE-162","1 55095U 23001CQ  23245.88463363  .00034447  00000-0  14724-2 0  9999","2 55095  97.4692 305.3951 0015607  93.4253 266.8769 15.22658456 36911","2023-001CQ","55095","6875.963","94.571","508.559","487.096","0"
"GENERATED VIA SPACETRACK.ORG API","18 SPCS","55095","SPACEBEE-162","PAYLOAD","U","23001CQ","2023-09-02 21:13:52","345632","15.22658456","0.0015607","97.4692","305.3951","93.4253","266.8769","0","999","3691","0.0014724","0.00034447","0","3996243","0 SPACEBEE-162","1 55095U 23001CQ  23245.88463363  .00034447  00000-0  14724-2 0  9999","2 55095  97.4692 305.3951 0015607  93.4253 266.8769 15.22658456 36911","2023-001CQ","55095","6875.963","94.571","508.559","487.096","0"
"GENERATED VIA SPACETRACK.ORG API","18 SPCS","55095","SPACEBEE-162","PAYLOAD","U","23001CQ","2023-09-03 09:50:55","779648","15.22670736","0.0015515","97.4683","305.9175","91.9212","268.3802","0","999","3699","0.0010706","0.00025004","0","3996582","0 SPACEBEE-162","1 55095U 23001CQ  23246.41036782  .00025004  00000-0  10706-2 0  9995","2 55095  97.4683 305.9175 0015515  91.9212 268.3802 15.22670736 36999","2023-001CQ","55095","6875.926","94.571","508.459","487.123","0"
"GENERATED VIA SPACETRACK.ORG API","18 SPCS","55095","SPACEBEE-162","PAYLOAD","U","23001CQ","2023-09-03 09:50:55","779648","15.22670736","0.0015515","97.4683","305.9175","91.9212","268.3802","0","999","3699","0.0010706","0.00025004","0","3996586","0 SPACEBEE-162","1 55095U 23001CQ  23246.41036782  .00025004  00000-0  10706-2 0  9995","2 55095  97.4683 305.9175 0015515  91.9212 268.3802 15.22670736 36999","2023-001CQ","55095","6875.926","94.571","508.459","487.123","0"
"GENERATED VIA SPACETRACK.ORG API","18 SPCS","55095","SPACEBEE-162","PAYLOAD","U","23001CQ","2023-09-04 09:30:22","798080","15.22707663","0.0015412","97.4682","306.8973","88.7078","271.5923","0","999","3714","0.00084812","0.000198","0","3997467","0 SPACEBEE-162","1 55095U 23001CQ  23247.39609720  .00019800  00000-0  84812-3 0  9998","2 55095  97.4682 306.8973 0015412  88.7078 271.5923 15.22707663 37142","2023-001CQ","55095","6875.815","94.568","508.277","487.083","0"
"GENERATED VIA SPACETRACK.ORG API","18 SPCS","55095","SPACEBEE-162","PAYLOAD","U","23001CQ","2023-09-04 09:30:22","798080","15.22707663","0.0015412","97.4682","306.8973","88.7078","271.5923","0","999","3714","0.00084812","0.000198","0","3997503","0 SPACEBEE-162","1 55095U 23001CQ  23247.39609720  .00019800  00000-0  84812-3 0  9998","2 55095  97.4682 306.8973 0015412  88.7078 271.5923 15.22707663 37142","2023-001CQ","55095","6875.815","94.568","508.277","487.083","0"
